NORAD_CAT_ID,OBJECT_NAME,OBJECT_TYPE,EPOCH,MEAN_MOTION,ECCENTRICITY,INCLINATION,RA_OF_ASC_NODE,ARG_OF_PERICENTER,MEAN_ANOMALY,BSTAR,MEAN_MOTION_DOT,MEAN_MOTION_DDOT,TLE_LINE0,TLE_LINE1,TLE_LINE2,SEMIMAJOR_AXIS,PERIOD,APOGEE,PERIGEE,DECAYED
53146.0,STARLINK-4099,PAYLOAD,2022-10-12 14:00:01,15.08845168,0.0001876999999999,53.2183,359.1255,38.1718,263.4039,0.00019065,2.748e-05,0.0,0 STARLINK-4099,1 53146U 22083Q   22285.58334491  .00002748  00000-0  19065-3 0  9995,2 53146  53.2183 359.1255 0001877  38.1718 263.4039 15.08845168  1301,6917.865,95.437,541.028,538.431,0.0
53146.0,STARLINK-4099,PAYLOAD,2022-10-12 22:00:00,15.08853542,0.0001494,53.2178,357.6278,41.0382,272.1405,-0.0017457,-0.00027974,0.0,0 STARLINK-4099,1 53146U 22083Q   22285.91667824 -.00027974  00000-0 -17457-2 0  9993,2 53146  53.2178 357.6278 0001494  41.0382 272.1405 15.08853542 14075,6917.839,95.437,540.738,538.67,0.0
53146.0,STARLINK-4099,PAYLOAD,2022-10-13 14:00:01,15.08942028,0.0001959,53.2179,354.6365,33.0991,303.2067,-0.0091314,-0.00143144,0.0,0 STARLINK-4099,1 53146U 22083Q   22286.58334491 -.00143144  00000-0 -91314-2 0  9990,2 53146  53.2179 354.6365 0001959  33.0991 303.2067 15.08942028  1303,6917.569,95.431,540.789,538.078,0.0
53146.0,STARLINK-4099,PAYLOAD,2022-10-13 20:00:01,15.08836991,0.0001853,53.2173,353.5131,31.9039,223.2243,-6.7312e-05,-1.359e-05,0.0,0 STARLINK-4099,1 53146U 22083Q   22286.83335648 -.00001359  00000-0 -67312-4 0  9997,2 53146  53.2173 353.5131 0001853  31.9039 223.2243 15.08836991 14211,6917.89,95.438,541.036,538.4730000000002,0.0
53146.0,STARLINK-4099,PAYLOAD,2022-10-13 22:00:00,15.08838108,0.0001808,53.2175,353.1385,32.1204,315.8427,-0.00020067,-3.48e-05,0.0,0 STARLINK-4099,1 53146U 22083Q   22286.91667824 -.00003480  00000-0 -20067-3 0  9992,2 53146  53.2175 353.1385 0001808  32.1204 315.8427 15.08838108  1307,6917.886,95.438,541.002,538.5,0.0
53146.0,STARLINK-4099,PAYLOAD,2022-10-14 14:00:01,15.088676199999998,0.0002066999999999,53.2178,350.1473,34.3864,336.7443,-0.0029617,-0.00047152,0.0,0 STARLINK-4099,1 53146U 22083Q   22287.58334491 -.00047152  00000-0 -29617-2 0  9990,2 53146  53.2178 350.1473 0002067  34.3864 336.7443 15.08867620  1300,6917.795999999999,95.436,541.091,538.231,0.0
53146.0,STARLINK-4099,PAYLOAD,2022-10-14 22:00:00,15.08841683,0.0002133999999999,53.2181,348.6491,38.5638,344.1794,-0.0010179,-0.00016453,0.0,0 STARLINK-4099,1 53146U 22083Q   22287.91667824 -.00016453  00000-0 -10179-2 0  9999,2 53146  53.2181 348.6491 0002134  38.5638 344.1794 15.08841683  1309,6917.875,95.437,541.217,538.264,0.0
53146.0,STARLINK-4099,PAYLOAD,2022-10-15 14:00:01,15.08790318,0.0002161,53.2192,345.6576,32.2175,13.7286,0.0038546,0.00061511,0.0,0 STARLINK-4099,1 53146U 22083Q   22288.58334491  .00061511  00000-0  38546-2 0  9995,2 53146  53.2192 345.6576 0002161  32.2175  13.7286 15.08790318  1302,6918.031999999997,95.441,541.3919999999998,538.4019999999998,0.0
53146.0,STARLINK-4099,PAYLOAD,2022-10-15 22:00:01,15.08819457,0.0002037,53.2193,344.1595,35.8591,21.7162,-0.00054352,-8.923e-05,0.0,0 STARLINK-4099,1 53146U 22083Q   22288.91668981 -.00008923  00000-0 -54352-3 0  9990,2 53146  53.2193 344.1595 0002037  35.8591  21.7162 15.08819457 14538,6917.943,95.439,541.217,538.399,0.0
53146.0,STARLINK-4099,PAYLOAD,2022-10-16 14:00:01,15.08813746,0.0002266,53.2189,341.1688,34.202,46.4534,0.0032158,0.00051228,0.0,0 STARLINK-4099,1 53146U 22083Q   22289.58334491  .00051228  00000-0  32158-2 0  9993,2 53146  53.2189 341.1688 0002266  34.2020  46.4534 15.08813746 14630,6917.9609999999975,95.439,541.393,538.258,0.0
53146.0,STARLINK-4099,PAYLOAD,2022-10-16 22:00:00,15.08818872,0.0002014,53.2194,339.6707,35.9366,56.2993,0.00024707,3.644e-05,0.0,0 STARLINK-4099,1 53146U 22083Q   22289.91667824  .00003644  00000-0  24707-3 0  9990,2 53146  53.2194 339.6707 0002014  35.9366  56.2993 15.08818872  1305,6917.945,95.439,541.203,538.4169999999998,0.0
53146.0,STARLINK-4099,PAYLOAD,2022-10-17 14:00:01,15.08824302,0.0002239,53.2188,336.6798,33.0171,82.4001,0.0038744,0.00061889,0.0,0 STARLINK-4099,1 53146U 22083Q   22290.58334491  .00061889  00000-0  38744-2 0  9996,2 53146  53.2188 336.6798 0002239  33.0171  82.4001 15.08824302  1303,6917.928000000001,95.439,541.342,538.244,0.0
53146.0,STARLINK-4099,PAYLOAD,2022-10-17 22:00:00,15.08842823,0.0001964,53.2192,335.1817,35.0021,92.016,-0.00042827,-7.098e-05,0.0,0 STARLINK-4099,1 53146U 22083Q   22290.91667824 -.00007098  00000-0 -42827-3 0  9994,2 53146  53.2192 335.1817 0001964  35.0021  92.0160 15.08842823 14837,6917.871999999999,95.437,541.095,538.378,0.0
53146.0,STARLINK-4099,PAYLOAD,2022-10-18 14:00:01,15.08817706,0.0002177,53.2189,332.1909,36.9555,113.2842,0.003457,0.00055128,0.0,0 STARLINK-4099,1 53146U 22083Q   22291.58334491  .00055128  00000-0  34570-2 0  9999,2 53146  53.2189 332.1909 0002177  36.9555 113.2842 15.08817706 14937,6917.949000000001,95.439,541.32,538.307,0.0
53146.0,STARLINK-4099,PAYLOAD,2022-10-18 22:00:00,15.08845981,0.0001946,53.2188,330.6929,40.3828,121.4548,-0.00042745,-7.086e-05,0.0,0 STARLINK-4099,1 53146U 22083Q   22291.91667824 -.00007086  00000-0 -42745-3 0  9991,2 53146  53.2188 330.6929 0001946  40.3828 121.4548 15.08845981  1303,6917.861999999999,95.437,541.073,538.381,0.0
53146.0,STARLINK-4099,PAYLOAD,2022-10-19 06:00:00,15.08847635,0.0001986999999999,53.2188,329.1974,40.4708,132.9619,-0.0011912,-0.000192,0.0,0 STARLINK-4099,1 53146U 22083Q   22292.25001157 -.00019200  00000-0 -11912-2 0  9992,2 53146  53.2188 329.1974 0001987  40.4708 132.9619 15.08847635 15038,6917.857,95.437,541.097,538.347,0.0
53146.0,STARLINK-4099,PAYLOAD,2022-10-19 14:00:01,15.08824403,0.000215,53.2183,327.7022,36.0591,148.9721,0.0026378,0.00041925,0.0,0 STARLINK-4099,1 53146U 22083Q   22292.58334491  .00041925  00000-0  26378-2 0  9997,2 53146  53.2183 327.7022 0002150  36.0591 148.9721 15.08824403  1309,6917.928000000001,95.439,541.28,538.306,0.0
53146.0,STARLINK-4099,PAYLOAD,2022-10-19 22:00:00,15.08835693,0.0001836,53.2174,326.203,43.1993,153.4252,0.00013147,1.805e-05,0.0,0 STARLINK-4099,1 53146U 22083Q   22292.91667824  .00001805  00000-0  13147-3 0  9997,2 53146  53.2174 326.2030 0001836  43.1993 153.4252 15.08835693  1300,6917.894,95.438,541.029,538.488,0.0
53146.0,STARLINK-4099,PAYLOAD,2022-10-20 06:00:00,15.08844934,0.0002013,53.2183,324.7088,38.9516,169.2644,-0.0010714,-0.00017302,0.0,0 STARLINK-4099,1 53146U 22083Q   22293.25001157 -.00017302  00000-0 -10714-2 0  9993,2 53146  53.2183 324.7088 0002013  38.9516 169.2644 15.08844934 15186,6917.865,95.437,541.123,538.3380000000002,0.0
53146.0,STARLINK-4099,PAYLOAD,2022-10-20 14:00:01,15.08832591,0.0002165999999999,53.2177,323.2132,34.8062,185.0036,0.0014184,0.00022354,0.0,0 STARLINK-4099,1 53146U 22083Q   22293.58334491  .00022354  00000-0  14184-2 0  9995,2 53146  53.2177 323.2132 0002166  34.8062 185.0036 15.08832591  1309,6917.903,95.438,541.266,538.27,0.0
53146.0,STARLINK-4099,PAYLOAD,2022-10-20 22:00:00,15.08806464,0.0001947,53.2179,321.7149,36.9865,194.4229,0.0019659,0.00031109,0.0,0 STARLINK-4099,1 53146U 22083Q   22293.91667824  .00031109  00000-0  19659-2 0  9991,2 53146  53.2179 321.7149 0001947  36.9865 194.4229 15.08806464  1300,6917.983,95.44,541.195,538.501,0.0
53146.0,STARLINK-4099,PAYLOAD,2022-10-21 06:00:00,15.08841753,0.0002065999999999,53.2182,320.2199,37.6958,205.2826,-0.0010145,-0.00016399,0.0,0 STARLINK-4099,1 53146U 22083Q   22294.25001157 -.00016399  00000-0 -10145-2 0  9997,2 53146  53.2182 320.2199 0002066  37.6958 205.2826 15.08841753 15339,6917.875,95.437,541.169,538.311,0.0
53146.0,STARLINK-4099,PAYLOAD,2022-10-21 14:00:01,15.08832282,0.0002218999999999,53.2176,318.7242,34.2168,220.3595,0.0020451,0.00032403,0.0,0 STARLINK-4099,1 53146U 22083Q   22294.58334491  .00032403  00000-0  20451-2 0  9996,2 53146  53.2176 318.7242 0002219  34.2168 220.3595 15.08832282  1309,6917.904,95.438,541.304,538.234,0.0
53146.0,STARLINK-4099,PAYLOAD,2022-10-21 22:00:00,15.0883767,0.0002018,53.218,317.2262,37.3805,228.7958,0.00086355,0.00013481,0.0,0 STARLINK-4099,1 53146U 22083Q   22294.91667824  .00013481  00000-0  86355-3 0  9993,2 53146  53.2180 317.2262 0002018  37.3805 228.7958 15.08837670 15439,6917.888000000001,95.438,541.149,538.356,0.0
53146.0,STARLINK-4099,PAYLOAD,2022-10-22 14:00:01,15.08835335,0.0002241,53.2178,314.2351,33.0743,256.2888,0.0013385,0.00021076,0.0,0 STARLINK-4099,1 53146U 22083Q   22295.58334491  .00021076  00000-0  13385-2 0  9999,2 53146  53.2178 314.2351 0002241  33.0743 256.2888 15.08835335 15539,6917.895,95.438,541.31,538.2090000000002,0.0
53146.0,STARLINK-4099,PAYLOAD,2022-10-22 22:00:00,15.08839119,0.0002039,53.2181,312.737,36.6808,264.2927,0.001036,0.00016238,0.0,0 STARLINK-4099,1 53146U 22083Q   22295.91667824  .00016238  00000-0  10360-2 0  9999,2 53146  53.2181 312.7370 0002039  36.6808 264.2927 15.08839119  1300,6917.8830000000025,95.438,541.159,538.3380000000002,0.0
53146.0,STARLINK-4099,PAYLOAD,2022-10-23 14:00:01,15.08855466,0.0002239,53.2179,309.7457,32.3376,291.8375,0.00020288,2.943e-05,0.0,0 STARLINK-4099,1 53146U 22083Q   22296.58334491  .00002943  00000-0  20288-3 0  9993,2 53146  53.2179 309.7457 0002239  32.3376 291.8375 15.08855466 15686,6917.833000000001,95.437,541.247,538.149,0.0
53146.0,STARLINK-4099,PAYLOAD,2022-10-23 22:00:00,15.08836348,0.0002026999999999,53.2181,308.2476,36.2328,299.5666,-0.00036912,-6.157e-05,0.0,0 STARLINK-4099,1 53146U 22083Q   22296.91667824 -.00006157  00000-0 -36912-3 0  9993,2 53146  53.2181 308.2476 0002027  36.2328 299.5666 15.08836348  1309,6917.892,95.438,541.159,538.354,0.0
53146.0,STARLINK-4099,PAYLOAD,2022-10-24 06:00:00,15.08836218,0.0002183,53.2182,306.7525,34.6283,312.7585,-0.0041678999999999,-0.00066009,0.0,0 STARLINK-4099,1 53146U 22083Q   22297.25001157 -.00066009  00000-0 -41679-2 0  9999,2 53146  53.2182 306.7525 0002183  34.6283 312.7585 15.08836218 15784,6917.892,95.438,541.2669999999998,538.247,0.0
